[
  {
    "OBJECT_NAME": "STARLINK-31766",
    "OBJECT_ID": "24088R",
    "EPOCH": "2025-11-11T06:58:18.964992",
    "MEAN_MOTION": 15.30202686,
    "ECCENTRICITY": 9.55e-05,
    "INCLINATION": 53.1602,
    "RA_OF_ASC_NODE": 329.9385,
    "ARG_OF_PERICENTER": 57.5793,
    "MEAN_ANOMALY": 302.53,
    "EPHEMERIS_TYPE": 0,
    "CLASSIFICATION_TYPE": "U",
    "NORAD_CAT_ID": 59723,
    "ELEMENT_SET_NO": 999,
    "REV_AT_EPOCH": 8555,
    "BSTAR": 0.0,
    "MEAN_MOTION_DOT": -2.054e-05,
    "MEAN_MOTION_DDOT": 0.0,
    "TLE_LINE1": "1 59723U 24088R   25315.29049728 -.00002054  00000+0 -57254-4 0  9994",
    "TLE_LINE2": "2 59723  53.1602 329.9385 0000955  57.5793 302.5300 15.30202686 85558",
    "COMMENT": "Grouped by shell and plane from TLE"
  },
  {
    "OBJECT_NAME": "STARLINK-31836",
    "OBJECT_ID": "24088S",
    "EPOCH": "2025-11-11T07:04:24.735936",
    "MEAN_MOTION": 15.3018261,
    "ECCENTRICITY": 0.0001308,
    "INCLINATION": 53.1614,
    "RA_OF_ASC_NODE": 329.9664,
    "ARG_OF_PERICENTER": 109.0861,
    "MEAN_ANOMALY": 251.0281,
    "EPHEMERIS_TYPE": 0,
    "CLASSIFICATION_TYPE": "U",
    "NORAD_CAT_ID": 59724,
    "ELEMENT_SET_NO": 999,
    "REV_AT_EPOCH": 8555,
    "BSTAR": 6.9391e-05,
    "MEAN_MOTION_DOT": 1.695e-05,
    "MEAN_MOTION_DDOT": 0.0,
    "TLE_LINE1": "1 59724U 24088S   25315.29473074  .00001695  00000+0  69391-4 0  9993",
    "TLE_LINE2": "2 59724  53.1614 329.9664 0001308 109.0861 251.0281 15.30182610 85554",
    "COMMENT": "Grouped by shell and plane from TLE"
  },
  {
    "OBJECT_NAME": "STARLINK-32351",
    "OBJECT_ID": "24183W",
    "EPOCH": "2025-11-11T06:38:30.713568",
    "MEAN_MOTION": 15.30181084,
    "ECCENTRICITY": 0.0001633,
    "INCLINATION": 53.1607,
    "RA_OF_ASC_NODE": 329.5842,
    "ARG_OF_PERICENTER": 49.0747,
    "MEAN_ANOMALY": 311.0395,
    "EPHEMERIS_TYPE": 0,
    "CLASSIFICATION_TYPE": "U",
    "NORAD_CAT_ID": 61529,
    "ELEMENT_SET_NO": 999,
    "REV_AT_EPOCH": 6156,
    "BSTAR": 0.00014101,
    "MEAN_MOTION_DOT": 3.817e-05,
    "MEAN_MOTION_DDOT": 0.0,
    "TLE_LINE1": "1 61529U 24183W   25315.27674437  .00003817  00000+0  14101-3 0  9995",
    "TLE_LINE2": "2 61529  53.1607 329.5842 0001633  49.0747 311.0395 15.30181084 61565",
    "COMMENT": "Grouped by shell and plane from TLE"
  },
  {
    "OBJECT_NAME": "STARLINK-32657",
    "OBJECT_ID": "24254P",
    "EPOCH": "2025-11-11T01:41:27.909888",
    "MEAN_MOTION": 15.27596462,
    "ECCENTRICITY": 0.0001041,
    "INCLINATION": 43.0001,
    "RA_OF_ASC_NODE": 329.5697,
    "ARG_OF_PERICENTER": 289.7596,
    "MEAN_ANOMALY": 70.3143,
    "EPHEMERIS_TYPE": 0,
    "CLASSIFICATION_TYPE": "U",
    "NORAD_CAT_ID": 62475,
    "ELEMENT_SET_NO": 999,
    "REV_AT_EPOCH": 4932,
    "BSTAR": 0.0011914,
    "MEAN_MOTION_DOT": 0.00032685,
    "MEAN_MOTION_DDOT": 0.0,
    "TLE_LINE1": "1 62475U 24254P   25315.07046192  .00032685  00000+0  11914-2 0  9997",
    "TLE_LINE2": "2 62475  43.0001 329.5697 0001041 289.7596  70.3143 15.27596462 49320",
    "COMMENT": "Grouped by shell and plane from TLE"
  },
  {
    "OBJECT_NAME": "STARLINK-32734",
    "OBJECT_ID": "24254Q",
    "EPOCH": "2025-11-11T02:15:27.657504",
    "MEAN_MOTION": 15.27582401,
    "ECCENTRICITY": 0.0001214,
    "INCLINATION": 43.0025,
    "RA_OF_ASC_NODE": 326.2825,
    "ARG_OF_PERICENTER": 235.5555,
    "MEAN_ANOMALY": 124.5182,
    "EPHEMERIS_TYPE": 0,
    "CLASSIFICATION_TYPE": "U",
    "NORAD_CAT_ID": 62476,
    "ELEMENT_SET_NO": 999,
    "REV_AT_EPOCH": 4951,
    "BSTAR": 0.0011955000000000002,
    "MEAN_MOTION_DOT": 0.00032783,
    "MEAN_MOTION_DDOT": 0.0,
    "TLE_LINE1": "1 62476U 24254Q   25315.09407011  .00032783  00000+0  11955-2 0  9995",
    "TLE_LINE2": "2 62476  43.0025 326.2825 0001214 235.5555 124.5182 15.27582401 49514",
    "COMMENT": "Grouped by shell and plane from TLE"
  },
  {
    "OBJECT_NAME": "STARLINK-32733",
    "OBJECT_ID": "24254R",
    "EPOCH": "2025-11-11T07:34:43.137984",
    "MEAN_MOTION": 15.27621147,
    "ECCENTRICITY": 0.0001051,
    "INCLINATION": 43.0023,
    "RA_OF_ASC_NODE": 324.5018,
    "ARG_OF_PERICENTER": 262.7572,
    "MEAN_ANOMALY": 97.316,
    "EPHEMERIS_TYPE": 0,
    "CLASSIFICATION_TYPE": "U",
    "NORAD_CAT_ID": 62477,
    "ELEMENT_SET_NO": 999,
    "REV_AT_EPOCH": 4955,
    "BSTAR": 0.0016453000000000001,
    "MEAN_MOTION_DOT": 0.00045349,
    "MEAN_MOTION_DDOT": 0.0,
    "TLE_LINE1": "1 62477U 24254R   25315.31577706  .00045349  00000+0  16453-2 0  9990",
    "TLE_LINE2": "2 62477  43.0023 324.5018 0001051 262.7572  97.3160 15.27621147 49556",
    "COMMENT": "Grouped by shell and plane from TLE"
  },
  {
    "OBJECT_NAME": "STARLINK-32707",
    "OBJECT_ID": "24254S",
    "EPOCH": "2025-11-11T02:00:39.296160",
    "MEAN_MOTION": 15.27602031,
    "ECCENTRICITY": 0.0001188,
    "INCLINATION": 43.0023,
    "RA_OF_ASC_NODE": 326.1971,
    "ARG_OF_PERICENTER": 256.0945,
    "MEAN_ANOMALY": 103.9774,
    "EPHEMERIS_TYPE": 0,
    "CLASSIFICATION_TYPE": "U",
    "NORAD_CAT_ID": 62478,
    "ELEMENT_SET_NO": 999,
    "REV_AT_EPOCH": 4951,
    "BSTAR": 0.0011537000000000001,
    "MEAN_MOTION_DOT": 0.00031642,
    "MEAN_MOTION_DDOT": 0.0,
    "TLE_LINE1": "1 62478U 24254S   25315.08378815  .00031642  00000+0  11537-2 0  9994",
    "TLE_LINE2": "2 62478  43.0023 326.1971 0001188 256.0945 103.9774 15.27602031 49516",
    "COMMENT": "Grouped by shell and plane from TLE"
  },
  {
    "OBJECT_NAME": "STARLINK-32743",
    "OBJECT_ID": "24254U",
    "EPOCH": "2025-11-11T07:23:37.051872",
    "MEAN_MOTION": 15.2761394,
    "ECCENTRICITY": 9.98e-05,
    "INCLINATION": 42.9991,
    "RA_OF_ASC_NODE": 324.4441,
    "ARG_OF_PERICENTER": 269.063,
    "MEAN_ANOMALY": 91.0107,
    "EPHEMERIS_TYPE": 0,
    "CLASSIFICATION_TYPE": "U",
    "NORAD_CAT_ID": 62480,
    "ELEMENT_SET_NO": 999,
    "REV_AT_EPOCH": 4955,
    "BSTAR": 0.00148,
    "MEAN_MOTION_DOT": 0.00040732,
    "MEAN_MOTION_DDOT": 0.0,
    "TLE_LINE1": "1 62480U 24254U   25315.30806773  .00040732  00000+0  14800-2 0  9997",
    "TLE_LINE2": "2 62480  42.9991 324.4441 0000998 269.0630  91.0107 15.27613940 49559",
    "COMMENT": "Grouped by shell and plane from TLE"
  },
  {
    "OBJECT_NAME": "STARLINK-32753",
    "OBJECT_ID": "24254V",
    "EPOCH": "2025-11-11T01:29:12.165504",
    "MEAN_MOTION": 15.27606693,
    "ECCENTRICITY": 5.67e-05,
    "INCLINATION": 43.0006,
    "RA_OF_ASC_NODE": 326.0386,
    "ARG_OF_PERICENTER": 261.8609,
    "MEAN_ANOMALY": 98.2179,
    "EPHEMERIS_TYPE": 0,
    "CLASSIFICATION_TYPE": "U",
    "NORAD_CAT_ID": 62481,
    "ELEMENT_SET_NO": 999,
    "REV_AT_EPOCH": 4951,
    "BSTAR": 0.0010711,
    "MEAN_MOTION_DOT": 0.00029355,
    "MEAN_MOTION_DDOT": 0.0,
    "TLE_LINE1": "1 62481U 24254V   25315.06194636  .00029355  00000+0  10711-2 0  9994",
    "TLE_LINE2": "2 62481  43.0006 326.0386 0000567 261.8609  98.2179 15.27606693 49514",
    "COMMENT": "Grouped by shell and plane from TLE"
  },
  {
    "OBJECT_NAME": "STARLINK-32699",
    "OBJECT_ID": "24254W",
    "EPOCH": "2025-11-11T01:32:12.696576",
    "MEAN_MOTION": 15.27598809,
    "ECCENTRICITY": 7.53e-05,
    "INCLINATION": 42.9975,
    "RA_OF_ASC_NODE": 329.5182,
    "ARG_OF_PERICENTER": 278.8742,
    "MEAN_ANOMALY": 81.2024,
    "EPHEMERIS_TYPE": 0,
    "CLASSIFICATION_TYPE": "U",
    "NORAD_CAT_ID": 62482,
    "ELEMENT_SET_NO": 999,
    "REV_AT_EPOCH": 4932,
    "BSTAR": 0.0011315000000000001,
    "MEAN_MOTION_DOT": 0.00031024,
    "MEAN_MOTION_DDOT": 0.0,
    "TLE_LINE1": "1 62482U 24254W   25315.06403584  .00031024  00000+0  11315-2 0  9997",
    "TLE_LINE2": "2 62482  42.9975 329.5182 0000753 278.8742  81.2024 15.27598809 49322",
    "COMMENT": "Grouped by shell and plane from TLE"
  },
  {
    "OBJECT_NAME": "STARLINK-32859",
    "OBJECT_ID": "25022H",
    "EPOCH": "2025-11-11T06:15:56.807424",
    "MEAN_MOTION": 15.30196295,
    "ECCENTRICITY": 0.0001233,
    "INCLINATION": 53.1601,
    "RA_OF_ASC_NODE": 320.0236,
    "ARG_OF_PERICENTER": 85.6619,
    "MEAN_ANOMALY": 274.4523,
    "EPHEMERIS_TYPE": 0,
    "CLASSIFICATION_TYPE": "U",
    "NORAD_CAT_ID": 62861,
    "ELEMENT_SET_NO": 999,
    "REV_AT_EPOCH": 4376,
    "BSTAR": 0.00064982,
    "MEAN_MOTION_DOT": 0.00018934,
    "MEAN_MOTION_DDOT": 0.0,
    "TLE_LINE1": "1 62861U 25022H   25315.26107416  .00018934  00000+0  64982-3 0  9993",
    "TLE_LINE2": "2 62861  53.1601 320.0236 0001233  85.6619 274.4523 15.30196295 43769",
    "COMMENT": "Grouped by shell and plane from TLE"
  },
  {
    "OBJECT_NAME": "STARLINK-32849",
    "OBJECT_ID": "25022U",
    "EPOCH": "2025-11-11T06:14:27.640032",
    "MEAN_MOTION": 15.30137493,
    "ECCENTRICITY": 0.000146,
    "INCLINATION": 53.1603,
    "RA_OF_ASC_NODE": 320.0222,
    "ARG_OF_PERICENTER": 84.0084,
    "MEAN_ANOMALY": 276.1083,
    "EPHEMERIS_TYPE": 0,
    "CLASSIFICATION_TYPE": "U",
    "NORAD_CAT_ID": 62872,
    "ELEMENT_SET_NO": 999,
    "REV_AT_EPOCH": 4376,
    "BSTAR": 0.00090549,
    "MEAN_MOTION_DOT": 0.00026503,
    "MEAN_MOTION_DDOT": 0.0,
    "TLE_LINE1": "1 62872U 25022U   25315.26004213  .00026503  00000+0  90549-3 0  9995",
    "TLE_LINE2": "2 62872  53.1603 320.0222 0001460  84.0084 276.1083 15.30137493 43764",
    "COMMENT": "Grouped by shell and plane from TLE"
  },
  {
    "OBJECT_NAME": "STARLINK-32955",
    "OBJECT_ID": "25039P",
    "EPOCH": "2025-11-11T07:11:24.734112",
    "MEAN_MOTION": 15.27620121,
    "ECCENTRICITY": 0.0001087,
    "INCLINATION": 42.9987,
    "RA_OF_ASC_NODE": 321.1219,
    "ARG_OF_PERICENTER": 257.731,
    "MEAN_ANOMALY": 102.342,
    "EPHEMERIS_TYPE": 0,
    "CLASSIFICATION_TYPE": "U",
    "NORAD_CAT_ID": 63117,
    "ELEMENT_SET_NO": 999,
    "REV_AT_EPOCH": 3996,
    "BSTAR": 0.0019366000000000001,
    "MEAN_MOTION_DOT": 0.00053481,
    "MEAN_MOTION_DDOT": 0.0,
    "TLE_LINE1": "1 63117U 25039P   25315.29959183  .00053481  00000+0  19366-2 0  9996",
    "TLE_LINE2": "2 63117  42.9987 321.1219 0001087 257.7310 102.3420 15.27620121 39965",
    "COMMENT": "Grouped by shell and plane from TLE"
  }
]